STARLINK-4061           
1 53247U 22086F   26068.58592743 -.00000824  00000+0 -33711-4 0  9998
2 53247  53.2169 199.7689 0001224  69.4442 290.6682 15.08827445201297
RAISE-4                 
1 67073U 25297B   26068.97636248  .00005682  00000+0  37087-3 0  9993
2 67073  97.4953 219.2703 0012713  22.7159 337.4629 15.08174958 12933
