[{"OBJECT_NAME":"STARLINK-4061","OBJECT_ID":"2022-086F","EPOCH":"2026-03-09T14:03:44.129952","MEAN_MOTION":15.08827445,"ECCENTRICITY":0.0001224,"INCLINATION":53.2169,"RA_OF_ASC_NODE":199.7689,"ARG_OF_PERICENTER":69.4442,"MEAN_ANOMALY":290.6682,"EPHEMERIS_TYPE":0,"CLASSIFICATION_TYPE":"U","NORAD_CAT_ID":53247,"ELEMENT_SET_NO":999,"REV_AT_EPOCH":20129,"BSTAR":-3.3711e-5,"MEAN_MOTION_DOT":-8.24e-6,"MEAN_MOTION_DDOT":0},{"OBJECT_NAME":"RAISE-4","OBJECT_ID":"2025-297B","EPOCH":"2026-03-09T23:25:57.718272","MEAN_MOTION":15.08174958,"ECCENTRICITY":0.00127133,"INCLINATION":97.4953,"RA_OF_ASC_NODE":219.2703,"ARG_OF_PERICENTER":22.7159,"MEAN_ANOMALY":337.4629,"EPHEMERIS_TYPE":0,"CLASSIFICATION_TYPE":"U","NORAD_CAT_ID":67073,"ELEMENT_SET_NO":999,"REV_AT_EPOCH":1293,"BSTAR":0.00037087145,"MEAN_MOTION_DOT":5.682e-5,"MEAN_MOTION_DDOT":0}]
